ORBCOMM FM37            
1 33064U 08031E   25181.57256029  .00000704  00000+0  12055-3 0  9997
2 33064  48.4404 279.9985 0004549  70.4845 303.1225 14.79802886916039
ORBCOMM FM40            
1 33065U 08031F   25181.53170253  .00001010  00000+0  15277-3 0  9998
2 33065  48.4420 264.0056 0005570  84.9520 288.8307 14.82069931916149
VESSELSAT 1             
1 37840U 11058C   25179.97723663  .00000311  00000+0  25033-4 0  9995
2 37840  19.9635  22.5443 0013615 316.5418  43.3913 14.11355395707971
ORBCOMM FM109           
1 40086U 14040A   25181.40921693  .00000238  00000+0  87579-4 0  9990
2 40086  47.0040 313.8472 0000958  24.2676 335.8254 14.58189815582995
ORBCOMM FM107           
1 40087U 14040B   25181.36870058  .00000348  00000+0  11118-3 0  9991
2 40087  47.0059 314.9991 0001339 304.4904  55.5855 14.58261756583062
ORBCOMM FM106           
1 40088U 14040C   25181.55831693  .00000515  00000+0  11763-3 0  9997
2 40088  47.0594 135.1339 0016056 129.6277 230.6033 14.69464189585443
ORBCOMM FM111           
1 40089U 14040D   25181.46070511  .00001287  00000+0  16793-3 0  9997
2 40089  47.0034 343.9819 0031161 255.7163 104.0273 14.86348463592201
ORBCOMM FM104           
1 40090U 14040E   25181.50866066  .00000250  00000+0  93191-4 0  9999
2 40090  47.0066 348.1058 0016942 265.1156  94.7795 14.56659496582567
